ONEWEB-0688             
1 61596U 24188C   26198.40611152 -.00000224  00000+0 -60890-3 0  9991
2 61596  87.9143 359.8634 0001053  54.9719 305.1511 13.17648795 89872
ONEWEB-0689             
1 61597U 24188D   26198.48060230  .00000614  00000+0  16978-2 0  9993
2 61597  87.8897  15.0219 0002064  85.9824 274.1540 13.11417412 88423
ONEWEB-0690             
1 61598U 24188E   26198.49078029  .00000390  00000+0  10635-2 0  9995
2 61598  87.8893  15.0303 0001663 111.3215 248.8090 13.11415528 88600
ONEWEB-0691             
1 61599U 24188F   26198.48569716  .00000533  00000+0  14673-2 0  9998
2 61599  87.8904  14.9428 0001651  80.8010 279.3305 13.11415519 88451
ONEWEB-0692             
1 61600U 24188G   26198.42972513 -.00000250  00000+0 -74066-3 0  9999
2 61600  87.8883  15.0615 0002635  93.6481 266.4948 13.11416295 88437
ONEWEB-0693             
1 61601U 24188H   26198.72168015  .00000067  00000+0  14045-3 0  9992
2 61601  87.9140 359.8190 0001520 117.9854 242.1432 13.17650356 89904
ONEWEB-0695             
1 61602U 24188J   26198.48230475  .00000578  00000+0  15952-2 0  9990
2 61602  87.8884  15.0432 0002342  87.0496 273.0899 13.11416539 88435
ONEWEB-0697             
1 61603U 24188K   26198.74339477 -.00000476  00000+0 -13776-2 0  9993
2 61603  87.8886  14.9816 0002578  96.3195 263.8227 13.11416318 88451
ONEWEB-0698             
1 61604U 24188L   26198.72136778  .00000374  00000+0  10187-2 0  9999
2 61604  87.8883  14.9996 0002598 116.0447 244.0949 13.11415336 88473
ONEWEB-0699             
1 61605U 24188M   26198.07104465  .00000523  00000+0  14619-2 0  9996
2 61605  87.8816  30.3100 0002458  96.8754 263.2653 13.10371176 87229
ONEWEB-0700             
1 61606U 24188N   26198.53087547  .00000532  00000+0  14873-2 0  9991
2 61606  87.8833  30.1324 0002488  94.6214 265.5197 13.10369664 87277
ONEWEB-0701             
1 61607U 24188P   26198.24241139 -.00000385  00000+0 -11389-2 0  9996
2 61607  87.8818  30.2763 0002583  98.4583 261.6838 13.10369534 87248
ONEWEB-0702             
1 61608U 24188Q   26198.46195632  .00000081  00000+0  19183-3 0  9999
2 61608  87.8905  14.9628 0002890  91.8498 268.2961 13.11418703 88456
ONEWEB-0704             
1 61609U 24188R   26198.45960959  .00000304  00000+0  83495-3 0  9996
2 61609  87.8820  30.2230 0002868  87.7462 272.3994 13.10368988 87250
ONEWEB-0705             
1 61610U 24188S   26198.23562963 -.00000076  00000+0 -25497-3 0  9993
2 61610  87.8820  30.2737 0002646  72.2562 287.8854 13.10368863 79392
ONEWEB-0706             
1 61611U 24188T   26198.06765069  .00000602  00000+0  16893-2 0  9999
2 61611  87.8818  30.3105 0002433  85.5926 274.5479 13.10371662 87290
ONEWEB-0707             
1 61612U 24188U   26198.07442395  .00000384  00000+0  10648-2 0  9994
2 61612  87.8821  30.3047 0002434  87.4095 272.7311 13.10368739 87239
ONEWEB-0708             
1 61613U 24188V   26198.47486455 -.00000442  00000+0 -13013-2 0  9990
2 61613  87.8814  30.2409 0001957  71.4848 288.6492 13.10369383 87266
