OBJECT_NAME,OBJECT_ID,EPOCH,MEAN_MOTION,ECCENTRICITY,INCLINATION,RA_OF_ASC_NODE,ARG_OF_PERICENTER,MEAN_ANOMALY,EPHEMERIS_TYPE,CLASSIFICATION_TYPE,NORAD_CAT_ID,ELEMENT_SET_NO,REV_AT_EPOCH,BSTAR,MEAN_MOTION_DOT,MEAN_MOTION_DDOT
ONEWEB-0688,2024-188C,2026-07-17T09:44:48.035328,13.17648795,.0001053,87.9143,359.8634,54.9719,305.1511,0,U,61596,999,8987,-.6089E-3,-.224E-5,0
ONEWEB-0689,2024-188D,2026-07-17T11:32:04.038720,13.11417412,.0002064,87.8897,15.0219,85.9824,274.1540,0,U,61597,999,8842,.16978E-2,.614E-5,0
ONEWEB-0690,2024-188E,2026-07-17T11:46:43.417056,13.11415528,.0001663,87.8893,15.0303,111.3215,248.8090,0,U,61598,999,8860,.10635E-2,.39E-5,0
ONEWEB-0691,2024-188F,2026-07-17T11:39:24.234624,13.11415519,.0001651,87.8904,14.9428,80.8010,279.3305,0,U,61599,999,8845,.14673E-2,.533E-5,0
ONEWEB-0692,2024-188G,2026-07-17T10:18:48.251232,13.11416295,.0002635,87.8883,15.0615,93.6481,266.4948,0,U,61600,999,8843,-.74066E-3,-.25E-5,0
ONEWEB-0693,2024-188H,2026-07-17T17:19:13.164960,13.17650356,.000152,87.9140,359.8190,117.9854,242.1432,0,U,61601,999,8990,.14045E-3,.67E-6,0
ONEWEB-0695,2024-188J,2026-07-17T11:34:31.130400,13.11416539,.0002342,87.8884,15.0432,87.0496,273.0899,0,U,61602,999,8843,.15952E-2,.578E-5,0
ONEWEB-0697,2024-188K,2026-07-17T17:50:29.308128,13.11416318,.0002578,87.8886,14.9816,96.3195,263.8227,0,U,61603,999,8845,-.13776E-2,-.476E-5,0
ONEWEB-0698,2024-188L,2026-07-17T17:18:46.176192,13.11415336,.0002598,87.8883,14.9996,116.0447,244.0949,0,U,61604,999,8847,.10187E-2,.374E-5,0
ONEWEB-0699,2024-188M,2026-07-17T01:42:18.257760,13.10371176,.0002458,87.8816,30.3100,96.8754,263.2653,0,U,61605,999,8722,.14619E-2,.523E-5,0
ONEWEB-0700,2024-188N,2026-07-17T12:44:27.640608,13.10369664,.0002488,87.8833,30.1324,94.6214,265.5197,0,U,61606,999,8727,.14873E-2,.532E-5,0
ONEWEB-0701,2024-188P,2026-07-17T05:49:04.344096,13.10369534,.0002583,87.8818,30.2763,98.4583,261.6838,0,U,61607,999,8724,-.11389E-2,-.385E-5,0
ONEWEB-0702,2024-188Q,2026-07-17T11:05:13.026048,13.11418703,.000289,87.8905,14.9628,91.8498,268.2961,0,U,61608,999,8845,.19183E-3,.81E-6,0
ONEWEB-0704,2024-188R,2026-07-17T11:01:50.268576,13.10368988,.0002868,87.8820,30.2230,87.7462,272.3994,0,U,61609,999,8725,.83495E-3,.304E-5,0
ONEWEB-0705,2024-188S,2026-07-17T05:39:18.400032,13.10368863,.0002646,87.8820,30.2737,72.2562,287.8854,0,U,61610,999,7939,-.25497E-3,-.76E-6,0
ONEWEB-0706,2024-188T,2026-07-17T01:37:25.019616,13.10371662,.0002433,87.8818,30.3105,85.5926,274.5479,0,U,61611,999,8729,.16893E-2,.602E-5,0
ONEWEB-0707,2024-188U,2026-07-17T01:47:10.229280,13.10368739,.0002434,87.8821,30.3047,87.4095,272.7311,0,U,61612,999,8723,.10648E-2,.384E-5,0
ONEWEB-0708,2024-188V,2026-07-17T11:23:48.297120,13.10369383,.0001957,87.8814,30.2409,71.4848,288.6492,0,U,61613,999,8726,-.13013E-2,-.442E-5,0
